[{"OBJECT_NAME":"OBJECT E","OBJECT_ID":"2024-174E","EPOCH":"2026-03-09T23:40:24.424320","MEAN_MOTION":15.26241811,"ECCENTRICITY":0.00122518,"INCLINATION":97.4515,"RA_OF_ASC_NODE":80.1669,"ARG_OF_PERICENTER":217.7524,"MEAN_ANOMALY":142.2856,"EPHEMERIS_TYPE":0,"CLASSIFICATION_TYPE":"U","NORAD_CAT_ID":61242,"ELEMENT_SET_NO":999,"REV_AT_EPOCH":8070,"BSTAR":0.00031155901,"MEAN_MOTION_DOT":8.013e-5,"MEAN_MOTION_DDOT":0},{"OBJECT_NAME":"STARLINK-32618","OBJECT_ID":"2024-216P","EPOCH":"2026-03-09T19:42:41.482944","MEAN_MOTION":15.27578686,"ECCENTRICITY":0.00017489,"INCLINATION":43.0003,"RA_OF_ASC_NODE":255.7603,"ARG_OF_PERICENTER":269.1618,"MEAN_ANOMALY":90.9034,"EPHEMERIS_TYPE":0,"CLASSIFICATION_TYPE":"U","NORAD_CAT_ID":62045,"ELEMENT_SET_NO":999,"REV_AT_EPOCH":7389,"BSTAR":0.00085364366,"MEAN_MOTION_DOT":0.00023302,"MEAN_MOTION_DDOT":0}]
